[{"OBJECT_NAME":"STARLINK-1457","OBJECT_ID":"2020-035T","EPOCH":"2026-03-10T00:00:02.999808","MEAN_MOTION":15.78669146,"ECCENTRICITY":0.00092447,"INCLINATION":53.048,"RA_OF_ASC_NODE":20.8784,"ARG_OF_PERICENTER":72.1438,"MEAN_ANOMALY":18.6861,"EPHEMERIS_TYPE":0,"CLASSIFICATION_TYPE":"U","NORAD_CAT_ID":45674,"ELEMENT_SET_NO":999,"REV_AT_EPOCH":598,"BSTAR":0.00068365189,"MEAN_MOTION_DOT":0.00123445,"MEAN_MOTION_DDOT":0},{"OBJECT_NAME":"DONGPO 06","OBJECT_ID":"2022-098D","EPOCH":"2026-03-09T23:02:06.069408","MEAN_MOTION":15.80724607,"ECCENTRICITY":0.0004374,"INCLINATION":97.5346,"RA_OF_ASC_NODE":198.2666,"ARG_OF_PERICENTER":270.9335,"MEAN_ANOMALY":89.1431,"EPHEMERIS_TYPE":0,"CLASSIFICATION_TYPE":"U","NORAD_CAT_ID":53447,"ELEMENT_SET_NO":999,"REV_AT_EPOCH":19961,"BSTAR":0.0010695028,"MEAN_MOTION_DOT":0.00208925,"MEAN_MOTION_DDOT":0}]
